satname,norad_id,inclination_deg,eccentricity,mean_motion_rev_per_day,perigee_km,apogee_km,l1,l2
STARLINK-1394,45679,53.0549,0.0001701,15.0641304,545.9935975130948,548.3495874962646,1 45679U 20035Y   25272.68561652  .00011581  00000+0  79481-3 0  9995,2 45679  53.0549  59.3914 0001701  52.7662 307.3482 15.06413040294609
STARLINK-1402,45685,53.055,0.0001316,15.0639587,546.3128382863661,548.13559335837,1 45685U 20035AE  25271.78752766 -.00000985  00000+0 -47238-4 0  9994,2 45685  53.0550  57.8457 0001316  91.0719 269.0421 15.06395870294555
STARLINK-1404,45686,53.055,0.0001431,15.06409231,546.1922530671354,548.1742797273782,1 45686U 20035AF  25272.64507286  .00010100  00000+0  69583-3 0  9990,2 45686  53.0550  59.5772 0001431  69.3898 290.7244 15.06409231294606
STARLINK-1413,45689,53.0556,0.00013,15.06412575,546.2727273402188,548.0733079448046,1 45689U 20035AJ  25272.72983301  .00003146  00000+0  22994-3 0  9995,2 45689  53.0556  59.1911 0001300  86.7772 273.3365 15.06412575294522
STARLINK-1417,45693,53.0561,0.0001452,15.06367458,546.3057211842497,548.3168713694886,1 45693U 20035AN  25272.72618416 -.00003374  00000+0 -20788-3 0  9996,2 45693  53.0561  59.2147 0001452  98.4243 261.6910 15.06367458294600
STARLINK-1420,45695,53.0554,0.0001054,15.06399529,546.4830695956598,547.9429333759736,1 45695U 20035AQ  25272.59435613  .00001884  00000+0  14530-3 0  9999,2 45695  53.0554  39.7931 0001054  93.1746 266.9363 15.06399529294879
STARLINK-1422,45696,53.0555,0.0001489,15.06401225,546.1766196510134,548.2389873334923,1 45696U 20035AR  25272.80357336  .00002187  00000+0  16569-3 0  9990,2 45696  53.0555  58.8657 0001489 104.3928 255.7227 15.06401225294611
STARLINK-1351,45697,53.0565,0.0001391,15.06413437,546.207065518709,548.1336860306492,1 45697U 20035AS  25272.64689191  .00001370  00000+0  11081-3 0  9997,2 45697  53.0565  39.5692 0001391  87.3370 272.7778 15.06413437294888
STARLINK-1398,45699,53.0539,0.0002559,15.44289622,431.7230881432015,435.2092666493927,1 45699U 20035AU  25272.53750113  .00051010  00000+0  10926-2 0  9992,2 45699  53.0539   8.9381 0002559 195.5849 164.5079 15.44289622295305
STARLINK-1400,45700,53.0553,0.0001416,15.06432889,546.1301446413099,548.0913748068633,1 45700U 20035AV  25272.62109847  .00016455  00000+0  11200-2 0  9997,2 45700  53.0553  39.6867 0001416  82.4076 277.7074 15.06432889294877
STARLINK-1403,45701,53.0556,0.0001071,15.06424548,546.3946261026358,547.8780196483958,1 45701U 20035AW  25271.65539111  .00006822  00000+0  47609-3 0  9991,2 45701  53.0556  44.0191 0001071 109.2368 250.8737 15.06424548294725
STARLINK-1407,45703,53.0442,0.0008169,15.35836755,452.8514342763274,464.02102762105187,1 45703U 20035AY  25272.25983962  .00042795  00000+0  12125-2 0  9990,2 45703  53.0442   7.1784 0008169 279.9652  80.0427 15.35836755295308
STARLINK-1411,45706,53.0555,0.0001051,15.31214828,471.4666805637153,472.9066185948568,1 45706U 20035BB  25272.91670139  .00085839  00000+0  27878-2 0  9992,2 45706  53.0555  30.7028 0001051  25.5539 203.4458 15.31214828  5593
STARLINK-1423,45710,53.0556,0.0001395,15.06419145,546.186803953573,548.118959830621,1 45710U 20035BF  25272.67638410  .00009293  00000+0  64158-3 0  9999,2 45710  53.0556  39.4385 0001395  83.3032 276.8115 15.06419145294889
STARLINK-1433,45711,53.0538,0.0001167,15.06426866,546.3210401736997,547.9373973091533,1 45711U 20035BG  25272.72429586  .00015739  00000+0  10724-2 0  9999,2 45711  53.0538  39.2206 0001167  79.2242 280.8878 15.06426866294883
STARLINK-1434,45712,53.0543,0.0001443,15.12271152,528.2788246331738,530.2723038992217,1 45712U 20035BH  25271.78944093  .00067226  00000+0  38226-2 0  9995,2 45712  53.0543  41.3030 0001443 120.4761 239.6373 15.12271152294785
STARLINK-1465,45731,53.0527,0.000132,15.0639576,546.3104052330955,548.1387006830764,1 45731U 20038B   25272.22671596  .00000995  00000+0  85704-4 0  9999,2 45731  53.0527 241.4537 0001320 100.9098 259.2040 15.06395760291852
STARLINK-1471,45735,53.051,0.00039,15.39131134,446.0148884276923,451.3398036175895,1 45735U 20038F   25271.97579508  .00031592  00000+0  80915-3 0  9999,2 45735  53.0510 190.5902 0003900  85.7189 274.4260 15.39131134292555
STARLINK-1474,45738,53.0385,0.0006018,15.61636102,378.8618328096145,386.99945382511123,1 45738U 20038J   25272.83551000  .00084101  00000+0  95470-3 0  9991,2 45738  53.0385 149.4308 0006018 147.7758 212.3623 15.61636102293202
STARLINK-1475,45739,53.0531,0.0006779,15.62383474,376.1924839862968,385.3562159946132,1 45739U 20038K   25272.91670139  .00215269  00000+0  23266-2 0  9990,2 45739  53.0531 116.7474 0006779 121.0848  80.0598 15.62383474  5772
STARLINK-1480,45741,53.0538,0.0001426,15.06407021,546.202488032206,548.17759130392,1 45741U 20038M   25272.87174391 -.00000045  00000+0  15846-4 0  9999,2 45741  53.0538 238.5534 0001426 109.9597 250.1546 15.06407021291966
STARLINK-1500,45744,53.039,0.000568,15.2573845,484.66861591691213,492.4691938248452,1 45744U 20038Q   25272.09377120  .00040982  00000+0  15893-2 0  9994,2 45744  53.0390 225.5071 0005680  95.7472 264.4173 15.25738450292078
STARLINK-1504,45746,53.0282,0.0006623,15.3581527,453.97208542845055,463.02789478554587,1 45746U 20038S   25272.79441816  .00050385  00000+0  14257-2 0  9998,2 45746  53.0282 189.4477 0006623  72.2334 287.9390 15.35815270292633
STARLINK-1506,45747,53.0526,0.0004938,15.19893579,502.7624813633729,509.56141500460035,1 45747U 20038T   25272.25163051  .00013024  00000+0  61267-3 0  9995,2 45747  53.0526 225.8779 0004938 113.7998 246.3515 15.19893579292086
STARLINK-1464,45751,53.0534,0.0001847,15.06406326,545.9130614295891,548.4712780248865,1 45751U 20038X   25272.01108598  .00004691  00000+0  33358-3 0  9999,2 45751  53.0534 222.4187 0001847 110.5714 249.5474 15.06406326292112
STARLINK-1477,45754,53.0535,0.0001264,15.06397942,546.3425005640629,548.0932302740412,1 45754U 20038AA  25272.09217442  .00000180  00000+0  30956-4 0  9990,2 45754  53.0535 222.0566 0001264  94.6611 265.4523 15.06397942292120
STARLINK-1478,45755,53.0546,0.0001468,15.06392866,546.2167783290297,548.2500670851368,1 45755U 20038AB  25272.11061144 -.00003271  00000+0 -20087-3 0  9999,2 45755  53.0546 221.9778 0001468  90.4974 269.6183 15.06392866292115
STARLINK-1484,45756,53.0176,0.0005522,15.54684061,399.3265974183232,406.8157637329514,1 45756U 20038AC  25272.82047293  .00100167  00000+0  14723-2 0  9996,2 45756  53.0176 136.0781 0005522 121.7494 238.4054 15.54684061293380
